STARLINK-2022           
1 47643U 21012Z   24262.40881664  .00000035  00000+0  21262-4 0  9997
2 47643  53.0544 303.5651 0001431  96.1118 264.0035 15.06407224199285
